NORAD_CAT_ID,OBJECT_NAME,OBJECT_TYPE,EPOCH,MEAN_MOTION,ECCENTRICITY,INCLINATION,RA_OF_ASC_NODE,ARG_OF_PERICENTER,MEAN_ANOMALY,BSTAR,MEAN_MOTION_DOT,MEAN_MOTION_DDOT,TLE_LINE0,TLE_LINE1,TLE_LINE2,SEMIMAJOR_AXIS,PERIOD,APOGEE,PERIGEE,DECAYED
53605.0,STARLINK-4693,PAYLOAD,2022-12-24 08:06:11,15.08866535,0.0001671,53.2167,102.3097,47.4762,312.6371,0.00071204,0.0001107,0.0,0 STARLINK-4693,1 53605U 22104T   22358.33763293  .00011070  00000-0  71204-3 0  9990,2 53605  53.2167 102.3097 0001671  47.4762 312.6371 15.08866535 18786,6917.799,95.436,540.82,538.508,0.0
53605.0,STARLINK-4693,PAYLOAD,2022-12-24 17:38:30,15.08854702,0.0001756,53.2166,100.5256,43.0301,317.0829,0.00040922,6.233e-05,0.0,0 STARLINK-4693,1 53605U 22104T   22358.73507153  .00006233  00000-0  40922-3 0  9993,2 53605  53.2166 100.5256 0001756  43.0301 317.0829 15.08854702 18158,6917.835,95.437,540.915,538.486,0.0
53605.0,STARLINK-4693,PAYLOAD,2022-12-25 00:00:02,15.08857724,0.0001806,53.2166,99.3362,43.1998,316.9135,0.0007872999999999,0.0001227,0.0,0 STARLINK-4693,1 53605U 22104T   22359.00003039  .00012270  00000-0  78730-3 0  9994,2 53605  53.2166  99.3362 0001806  43.1998 316.9135 15.08857724 18885,6917.826,95.436,540.941,538.442,0.0
53605.0,STARLINK-4693,PAYLOAD,2022-12-25 12:43:08,15.08836874,0.0001614,53.2165,96.9575,44.679,315.4332,0.00029786,4.455e-05,0.0,0 STARLINK-4693,1 53605U 22104T   22359.52995557  .00004455  00000-0  29786-3 0  9999,2 53605  53.2165  96.9575 0001614  44.6790 315.4332 15.08836874 18275,6917.89,95.438,540.871,538.638,0.0
53605.0,STARLINK-4693,PAYLOAD,2022-12-25 14:18:31,15.08829982,0.0001585,53.2163,96.6607,41.0501,319.061,0.00054201,8.346e-05,0.0,0 STARLINK-4693,1 53605U 22104T   22359.59619689  .00008346  00000-0  54201-3 0  9998,2 53605  53.2163  96.6607 0001585  41.0501 319.0610 15.08829982 18972,6917.911,95.438,540.872,538.68,0.0
53605.0,STARLINK-4693,PAYLOAD,2022-12-25 23:50:50,15.08826723,0.0001897,53.2165,94.8762,44.6531,315.4614,0.00014058,1.949e-05,0.0,0 STARLINK-4693,1 53605U 22104T   22359.99364316  .00001949  00000-0  14058-3 0  9994,2 53605  53.2165  94.8762 0001897  44.6531 315.4614 15.08826723 18349,6917.920999999999,95.438,541.0980000000002,538.474,0.0
53605.0,STARLINK-4693,PAYLOAD,2022-12-26 12:33:56,15.0881581,0.0001665,53.217,92.4974,48.2399,311.8735,0.00045199,6.908e-05,0.0,0 STARLINK-4693,1 53605U 22104T   22360.52357461  .00006908  00000-0  45199-3 0  9998,2 53605  53.2170  92.4974 0001665  48.2399 311.8735 15.08815810 18427,6917.954000000002,95.439,540.971,538.6669999999998,0.0
53605.0,STARLINK-4693,PAYLOAD,2022-12-26 23:41:39,15.08834161,0.0001826,53.2169,90.4155,48.7746,311.3404,0.0012039,0.00018921,0.0,0 STARLINK-4693,1 53605U 22104T   22360.98726016  .00018921  00000-0  12039-2 0  9998,2 53605  53.2169  90.4155 0001826  48.7746 311.3404 15.08834161 18499,6917.898,95.438,541.026,538.5,0.0
53605.0,STARLINK-4693,PAYLOAD,2022-12-27 06:03:11,15.08835035,0.000193,53.217,89.2262,48.71100000000001,311.4048,0.00077329,0.00012039,0.0,0 STARLINK-4693,1 53605U 22104T   22361.25222130  .00012039  00000-0  77329-3 0  9995,2 53605  53.2170  89.2262 0001930  48.7110 311.4048 15.08835035 19225,6917.896,95.438,541.096,538.425,0.0
53605.0,STARLINK-4693,PAYLOAD,2022-12-27 12:24:43,15.08859838,0.0001905,53.2166,88.0361,48.6902,311.4254,0.0011635,0.00018288,0.0,0 STARLINK-4693,1 53605U 22104T   22361.51717380  .00018288  00000-0  11635-2 0  9999,2 53605  53.2166  88.0361 0001905  48.6902 311.4254 15.08859838 18570,6917.82,95.436,541.003,538.367,0.0
53605.0,STARLINK-4693,PAYLOAD,2022-12-29 12:06:17,15.08817344,0.0002136,53.2179,79.1145,45.8807,314.2361,0.0003105,4.654e-05,0.0,0 STARLINK-4693,1 53605U 22104T   22363.50437444  .00004654  00000-0  31050-3 0  9996,2 53605  53.2179  79.1145 0002136  45.8807 314.2361 15.08817344 18874,6917.95,95.439,541.2919999999998,538.337,0.0
53605.0,STARLINK-4693,PAYLOAD,2022-12-30 11:57:06,15.08832816,0.0001911,53.2165,74.6554,36.3588,323.7534,0.00061338,9.485e-05,0.0,0 STARLINK-4693,1 53605U 22104T   22364.49798664  .00009485  00000-0  61338-3 0  9998,2 53605  53.2165  74.6554 0001911  36.3588 323.7534 15.08832816 19716,6917.901999999999,95.438,541.089,538.445,0.0
53605.0,STARLINK-4693,PAYLOAD,2022-12-31 05:26:19,15.08879887,0.0002016,53.2165,71.384,35.5682,324.5444,0.0014685,0.00023186,0.0,0 STARLINK-4693,1 53605U 22104T   22365.22661642  .00023186  00000-0  14685-2 0  9991,2 53605  53.2165  71.3840 0002016  35.5682 324.5444 15.08879887 19135,6917.7580000000025,95.435,541.018,538.229,0.0
53605.0,STARLINK-4693,PAYLOAD,2022-12-31 13:23:14,15.08888023,0.0001945,53.217,69.8977,39.8595,320.254,0.00090326,0.00014135,0.0,0 STARLINK-4693,1 53605U 22104T   22365.55780502  .00014135  00000-0  90326-3 0  9995,2 53605  53.2170  69.8977 0001945  39.8595 320.2540 15.08888023 19877,6917.734,95.435,540.944,538.253,0.0
53605.0,STARLINK-4693,PAYLOAD,2023-01-01 05:17:05,15.08853197,0.0001696,53.217,66.9235,30.7126,329.3966,-0.00039816,-6.622e-05,0.0,0 STARLINK-4693,1 53605U 22104T   23001.22019956 -.00006622  00000-0 -39816-3 0  9996,2 53605  53.2170  66.9235 0001696  30.7126 329.3966 15.08853197 19286,6917.84,95.437,540.878,538.5319999999998,0.0
53605.0,STARLINK-4693,PAYLOAD,2023-01-01 13:14:01,15.08821966,0.0001873,53.2164,65.4377,28.5178,331.5917,0.00054196,8.344e-05,0.0,0 STARLINK-4693,1 53605U 22104T   23001.55140937  .00008344  00000-0  54196-3 0  9995,2 53605  53.2164  65.4377 0001873  28.5178 331.5917 15.08821966 19335,6917.936,95.439,541.096,538.505,0.0
53605.0,STARLINK-4693,PAYLOAD,2023-01-01 21:10:57,15.08820081,0.0001899,53.2162,63.9509,32.8714,327.2396,0.001075,0.00016853,0.0,0 STARLINK-4693,1 53605U 22104T   23001.88261517  .00016853  00000-0  10750-2 0  9990,2 53605  53.2162  63.9509 0001899  32.8714 327.2396 15.08820081 20078,6917.941,95.439,541.12,538.493,0.0
53605.0,STARLINK-4693,PAYLOAD,2023-01-02 09:54:03,15.08840367,0.0001945,53.2166,61.5719,34.3434,325.7684,0.0011448,0.00017979,0.0,0 STARLINK-4693,1 53605U 22104T   23002.41253802  .00017979  00000-0  11448-2 0  9993,2 53605  53.2166  61.5719 0001945  34.3434 325.7684 15.08840367 20158,6917.879,95.438,541.09,538.399,0.0
53605.0,STARLINK-4693,PAYLOAD,2023-01-02 21:01:45,15.08843936,0.0002097,53.2165,59.49,36.65,323.4636,0.00068252,0.00010592,0.0,0 STARLINK-4693,1 53605U 22104T   23002.87621833  .00010592  00000-0  68252-3 0  9996,2 53605  53.2165  59.4900 0002097  36.6500 323.4636 15.08843936 19530,6917.868,95.437,541.184,538.283,0.0
53605.0,STARLINK-4693,PAYLOAD,2023-01-03 09:44:50,15.08847096,0.0002242,53.2182,57.1111,38.8843,321.231,0.00040456,6.158e-05,0.0,0 STARLINK-4693,1 53605U 22104T   23003.40613730  .00006158  00000-0  40456-3 0  9992,2 53605  53.2182  57.1111 0002242  38.8843 321.2310 15.08847096 19619,6917.859,95.437,541.275,538.173,0.0
53605.0,STARLINK-4693,PAYLOAD,2023-01-04 09:35:37,15.08849977,0.0002186,53.2178,52.6511,36.5793,323.5349,0.00040443,6.156e-05,0.0,0 STARLINK-4693,1 53605U 22104T   23004.39973619  .00006156  00000-0  40443-3 0  9990,2 53605  53.2178  52.6511 0002186  36.5793 323.5349 15.08849977 19767,6917.85,95.437,541.227,538.203,0.0
53605.0,STARLINK-4693,PAYLOAD,2023-01-05 03:04:50,15.08871172,0.0002193,53.2168,49.3803,34.4469,325.6665,0.000668,0.00010368,0.0,0 STARLINK-4693,1 53605U 22104T   23005.12836356  .00010368  00000-0  66800-3 0  9993,2 53605  53.2168  49.3803 0002193  34.4469 325.6665 15.08871172 19876,6917.785,95.436,541.1669999999998,538.133,0.0
53605.0,STARLINK-4693,PAYLOAD,2023-01-05 09:26:22,15.08860085,0.0002018,53.2179,48.1894,14.6738,345.4313,0.00030536,4.578e-05,0.0,0 STARLINK-4693,1 53605U 22104T   23005.39332157  .00004578  00000-0  30536-3 0  9995,2 53605  53.2179  48.1894 0002018  14.6738 345.4313 15.08860085 19916,6917.819,95.436,541.08,538.288,0.0
53605.0,STARLINK-4693,PAYLOAD,2023-01-06 10:52:33,15.08820558,0.0002164,53.2178,43.4313,23.7477,336.3614,-0.00064831,-0.00010586,0.0,0 STARLINK-4693,1 53605U 22104T   23006.45316611 -.00010586  00000-0 -64831-3 0  9993,2 53605  53.2178  43.4313 0002164  23.7477 336.3614 15.08820558 20075,6917.94,95.439,541.302,538.308,0.0
53605.0,STARLINK-4693,PAYLOAD,2023-01-06 14:03:20,15.08811862,0.0002186,53.2176,42.8383,28.3945,331.7166,-0.00074167,-0.00012064,0.0,0 STARLINK-4693,1 53605U 22104T   23006.58565017 -.00012064  00000-0 -74167-3 0  9999,2 53605  53.2176  42.8383 0002186  28.3945 331.7166 15.08811862 20785,6917.965999999999,95.439,541.344,538.319,0.0
53605.0,STARLINK-4693,PAYLOAD,2023-01-07 02:46:25,15.08831126,0.0002181,53.2177,40.46,33.2992,326.8137,0.0002878999999999,4.296e-05,0.0,0 STARLINK-4693,1 53605U 22104T   23007.11557426  .00004296  00000-0  28790-3 0  9991,2 53605  53.2177  40.4600 0002181  33.2992 326.8137 15.08831126 20175,6917.908,95.438,541.281,538.264,0.0
53605.0,STARLINK-4693,PAYLOAD,2023-01-07 18:40:17,15.08826026,0.0002446,53.2176,37.4851,38.2446,321.872,0.00032004,4.807e-05,0.0,0 STARLINK-4693,1 53605U 22104T   23007.77798360  .00004807  00000-0  32004-3 0  9998,2 53605  53.2176  37.4851 0002446  38.2446 321.8720 15.08826026 20278,6917.923000000002,95.438,541.48,538.096,0.0
53605.0,STARLINK-4693,PAYLOAD,2023-01-08 08:58:45,15.0884348,0.0002085,53.2167,34.8096,29.7168,330.3942,0.00044303,6.77e-05,0.0,0 STARLINK-4693,1 53605U 22104T   23008.37414086  .00006770  00000-0  44303-3 0  9991,2 53605  53.2167  34.8096 0002085  29.7168 330.3942 15.08843480 20369,6917.87,95.437,541.177,538.2919999999998,0.0
53605.0,STARLINK-4693,PAYLOAD,2023-01-08 18:31:04,15.08848747,0.0002041,53.2168,33.0256,29.6103,330.5005,0.0007627,0.00011874,0.0,0 STARLINK-4693,1 53605U 22104T   23008.77158028  .00011874  00000-0  76270-3 0  9995,2 53605  53.2168  33.0256 0002041  29.6103 330.5005 15.08848747 21116,6917.854,95.437,541.131,538.307,0.0
